STARLINK-4125           
1 53244U 22086C   25365.67280105  .00000381  00000+0  42042-4 0  9993
2 53244  53.2179 149.5387 0001371  86.8051 273.3098 15.08840249190973
STARLINK-4131           
1 53246U 22086E   25365.66911295  .00000550  00000+0  52629-4 0  9995
2 53246  53.2169 149.4764 0001211  86.6973 273.4158 15.08840200189867
STARLINK-4061           
1 53247U 22086F   25365.62359331  .00000674  00000+0  60398-4 0  9998
2 53247  53.2177 144.8650 0001135 120.6591 239.4514 15.08838132191031
STARLINK-4135           
1 53248U 22086G   25365.87750027 -.00006611  00000+0 -39771-3 0  9992
2 53248  53.2150 143.6475 0001178  74.3430 285.7692 15.08836554191070
STARLINK-4128           
1 53249U 22086H   25365.68202910  .00002241  00000+0  15883-3 0  9996
2 53249  53.2168 139.4290 0001157  90.7940 269.3185 15.08842826190818
STARLINK-4059           
1 53250U 22086J   25365.68475387  .00000593  00000+0  55318-4 0  9994
2 53250  53.2178 139.4068 0001202  98.5959 261.5170 15.08836616190819
STARLINK-4129           
1 53251U 22086K   25365.73995691 -.00000196  00000+0  57885-5 0  9998
2 53251  53.2163 139.1578 0001281  88.7181 271.3958 15.08849165190807
STARLINK-4132           
1 53252U 22086L   25365.67739179 -.00001254  00000+0 -60727-4 0  9994
2 53252  53.2194 139.3933 0001464  99.7350 260.3807 15.08842206190813
STARLINK-4133           
1 53253U 22086M   25365.67003477  .00000328  00000+0  38721-4 0  9998
2 53253  53.2174 139.4743 0001274  89.8263 270.2875 15.08836696190792
STARLINK-4134           
1 53254U 22086N   25365.74459714 -.00001974  00000+0 -10604-3 0  9995
2 53254  53.2171 139.1476 0001098 115.5015 244.6091 15.08822405190828
STARLINK-4142           
1 53255U 22086P   25365.66267296 -.00000422  00000+0 -83957-5 0  9999
2 53255  53.2169 139.5078 0001628  91.8823 268.2356 15.08847375190795
STARLINK-4147           
1 53256U 22086Q   25365.73259224 -.00000171  00000+0  73385-5 0  9994
2 53256  53.2171 139.1913 0001176  82.6454 277.4672 15.08840833190806
STARLINK-4144           
1 53257U 22086R   25365.65163140  .00000594  00000+0  55411-4 0  9994
2 53257  53.2179 139.5533 0001200  93.1489 266.9641 15.08841622190794
STARLINK-4127           
1 53258U 22086S   25365.72524909  .00020368  00000+0  12971-2 0  9990
2 53258  53.2177 139.2274 0001585  97.6069 262.5103 15.08756196190809
STARLINK-4140           
1 53259U 22086T   25365.68103147  .00000558  00000+0  53124-4 0  9999
2 53259  53.2193 139.0661 0000928 105.7820 254.3275 15.08836382190807
STARLINK-4062           
1 53261U 22086V   25365.64059058  .00001117  00000+0  88242-4 0  9990
2 53261  53.2175 139.6041 0001149  85.9306 274.1818 15.08843820190798
STARLINK-4085           
1 53262U 22086W   25365.64795160  .00000644  00000+0  58546-4 0  9990
2 53262  53.2175 139.5712 0001271  88.5750 271.5388 15.08841397190791
STARLINK-4130           
1 53263U 22086X   25365.70315127  .00001114  00000+0  88082-4 0  9990
2 53263  53.2173 139.3232 0001157  85.8196 274.2928 15.08840931190807
STARLINK-3950           
1 53264U 22086Y   25365.64427136  .00000652  00000+0  59057-4 0  9994
2 53264  53.2177 139.5871 0001442 102.5014 257.6139 15.08842943190798
STARLINK-4097           
1 53265U 22086Z   25365.69579300  .00000716  00000+0  63039-4 0  9997
2 53265  53.2173 139.3556 0001210  84.1733 275.9398 15.08841376190800
STARLINK-4058           
1 53266U 22086AA  25365.69947215  .00000454  00000+0  46588-4 0  9991
2 53266  53.2172 139.3393 0001182  85.2191 274.8936 15.08838390190805
STARLINK-4060           
1 53267U 22086AB  25365.62220423 -.00000500  00000+0 -13304-4 0  9994
2 53267  53.2167 139.6833 0001647 114.2382 245.8782 15.08838555190791
STARLINK-4109           
1 53268U 22086AC  25365.69211342  .00000430  00000+0  45116-4 0  9998
2 53268  53.2182 139.3713 0001180  87.5152 272.5975 15.08841580190807
STARLINK-4057           
1 53269U 22086AD  25365.61575433  .00000550  00000+0  52629-4 0  9995
2 53269  53.2203 129.7144 0001695  86.0073 274.1113 15.08845184190929
STARLINK-4122           
1 53272U 22086AG  25365.61941706  .00001850  00000+0  13425-3 0  9993
2 53272  53.2172 129.6987 0000937  82.0282 278.0816 15.08854076190921
STARLINK-4051           
1 53273U 22086AH  25365.60103266  .00000822  00000+0  69727-4 0  9999
2 53273  53.2189 129.7796 0001429  91.3194 268.7962 15.08837302190911
STARLINK-4050           
1 53274U 22086AJ  25365.61207157  .00001383  00000+0  10497-3 0  9997
2 53274  53.2163 129.7310 0001273  82.6588 277.4549 15.08844944190922
STARLINK-4179           
1 53275U 22086AK  25365.59735657  .00001004  00000+0  81160-4 0  9992
2 53275  53.2188 129.7983 0001469  91.0062 269.1098 15.08836902190915
STARLINK-4174           
1 53276U 22086AL  25365.60471264  .00000588  00000+0  55019-4 0  9996
2 53276  53.2190 129.7625 0001453  84.5016 275.6142 15.08837848190913
STARLINK-4178           
1 53277U 22086AM  25365.58999661  .00000614  00000+0  56680-4 0  9995
2 53277  53.2189 129.8621 0001343  98.3264 261.7880 15.08839849190913
STARLINK-4180           
1 53278U 22086AN  25365.65990966  .00000055  00000+0  21518-4 0  9994
2 53278  53.2160 129.5192 0001250  92.1532 267.9603 15.08838958190922
STARLINK-4169           
1 53280U 22086AQ  25365.58122941 -.00000100  00000+0  11837-4 0  9994
2 53280  53.2180  84.5434 0001552  98.9258 261.1910 15.08828874191553
STARLINK-4164           
1 53282U 22086AS  25365.65255112  .00003613  00000+0  24500-3 0  9992
2 53282  53.2170 129.5519 0001349  87.3113 272.8034 15.08836563190924
STARLINK-4175           
1 53283U 22086AT  25365.64150972  .00000570  00000+0  53881-4 0  9994
2 53283  53.2172 129.6009 0001253  93.7538 266.3597 15.08839400190923
STARLINK-4173           
1 53285U 22086AV  25365.69674252 -.00003063  00000+0 -17455-3 0  9991
2 53285  53.2169 129.3527 0001557  96.7312 263.3857 15.08810257190928
STARLINK-4165           
1 53286U 22086AW  25365.93955266  .00004866  00000+0  32349-3 0  9995
2 53286  53.2156 127.9524 0001289  83.7915 276.3224 15.08849844190963
STARLINK-4107           
1 53287U 22086AX  25365.62311581  .00001146  00000+0  90092-4 0  9996
2 53287  53.2195 129.6838 0001587  85.9889 274.1285 15.08837525190910
STARLINK-4162           
1 53288U 22086AY  25365.56791066  .00000260  00000+0  34401-4 0  9998
2 53288  53.2167 129.9314 0001179  99.8616 260.2509 15.08845010190903
STARLINK-4176           
1 53289U 22086AZ  25365.66591026  .00000294  00000+0  36542-4 0  9999
2 53289  53.2180 124.6316 0001156  88.4141 271.6984 15.08844388190983
STARLINK-4149           
1 53290U 22086BA  25365.62679289 -.00000244  00000+0  27694-5 0  9990
2 53290  53.2187 129.6702 0001362  96.2551 263.8596 15.08840895190911
STARLINK-4166           
1 53291U 22086BB  25365.56653487  .00026946  00000+0  17103-2 0  9993
2 53291  53.2179 124.7279 0002330  84.7215 275.4043 15.08718445190970
STARLINK-4159           
1 53292U 22086BC  25365.63785655 -.00000830  00000+0 -34084-4 0  9990
2 53292  53.2179 129.8008 0001286 101.3945 258.7191 15.08840139190910
STARLINK-4148           
1 53293U 22086BD  25365.59092158 -.00002483  00000+0 -13804-3 0  9997
2 53293  53.2175 119.8165 0001542  53.1589 306.9545 15.08821896191046
STARLINK-4146           
1 53294U 22086BE  25365.60929227  .00001379  00000+0  10475-3 0  9998
2 53294  53.2185 119.5790 0001335  94.8513 265.2631 15.08834796191099
STARLINK-4522           
1 53388U 22097A   25365.56240463 -.00001959  00000+0 -10511-3 0  9994
2 53388  53.2196  69.9546 0001370  82.8395 277.2753 15.08824003188562
STARLINK-4523           
1 53389U 22097B   25365.42255482 -.00000075  00000+0  13401-4 0  9996
2 53389  53.2184  70.5848 0001519  78.8921 281.2242 15.08834827188369
STARLINK-4517           
1 53390U 22097C   25365.49247904  .00000270  00000+0  35055-4 0  9990
2 53390  53.2188  70.2678 0001250  83.3388 276.7746 15.08829378188524
STARLINK-4521           
1 53391U 22097D   25365.48511148  .00001563  00000+0  11626-3 0  9997
2 53391  53.2180  70.3018 0001277  93.4796 266.6343 15.08837475188371
STARLINK-4535           
1 53392U 22097E   25365.61022866  .00001392  00000+0  10556-3 0  9998
2 53392  53.2174  69.7385 0001562 104.0149 256.1017 15.08838465188396
STARLINK-4530           
1 53393U 22097F   25365.48147172  .00029517  00000+0  18713-2 0  9993
2 53393  53.2172  70.3215 0001832  85.5507 274.5695 15.08714978188372
STARLINK-4544           
1 53394U 22097G   25365.55957688  .00001744  00000+0  12763-3 0  9995
2 53394  53.2179  59.5807 0001463  95.6582 264.4577 15.08847981188537
STARLINK-4534           
1 53395U 22097H   25365.54126713  .00001362  00000+0  10364-3 0  9993
2 53395  53.2193  70.0574 0001449  98.1720 261.9437 15.08841793188227
STARLINK-4524           
1 53396U 22097J   25365.59182956 -.00000049  00000+0  15030-4 0  9998
2 53396  53.2165  69.8237 0001501  94.0615 266.0549 15.08841760188231
STARLINK-4515           
1 53397U 22097K   25365.60287180  .00000831  00000+0  70308-4 0  9993
2 53397  53.2179  69.7748 0001366  78.2272 281.8874 15.08844161188239
STARLINK-4512           
1 53398U 22097L   25365.58447487  .00001212  00000+0  94206-4 0  9996
2 53398  53.2177  69.8567 0001519  89.1925 270.9242 15.08837386188233
STARLINK-4528           
1 53399U 22097M   25365.46304208  .00001394  00000+0  10568-3 0  9996
2 53399  53.2197  70.4035 0001372  97.4465 262.6683 15.08841117188214
STARLINK-4520           
1 53400U 22097N   25365.50718927  .00001524  00000+0  11384-3 0  9993
2 53400  53.2189  70.2036 0001475  86.7040 273.4121 15.08841917188227
STARLINK-4525           
1 53401U 22097P   25365.58814932  .00001292  00000+0  99241-4 0  9996
2 53401  53.2176  69.8409 0001488  94.2444 265.8718 15.08842779188233
STARLINK-4499           
1 53402U 22097Q   25365.56975475  .00002109  00000+0  15052-3 0  9990
2 53402  53.2178  69.9224 0001333  97.2081 262.9063 15.08850714188230
